STARLINK-2449_new
1 18112C 21027W   21326.18463747 -.00008335  00000-0 -55859-3 0  3262
2 18112  53.0544  17.9210 0001456  57.9018  51.4305 15.06400189    18
STARLINK-2449_old
1 28112C 21027W   21325.15165697  .00004371  00000-0  29280-3 0  3253
2 28112  53.0542  22.5584 0001346  57.7077 206.6121 15.06398492    16
